{{Infobox Planet  
| name = 568 Cheruskia
| image = 
| caption = 
| discovery=yes | physical_characteristics = yes | bgcolour=#FFFFC0
| discovery_ref = 
| discoverer = [[保罗·格茨|保罗·格茨]]
| discovery_site = [[海德堡|海德堡]]（[[天文台编号列表|024]]）
| discovered =  1905年7月26日
| mp_name = 568
| alt_names = 1905 QS
| named_after =  Cheruskia
| mp_category=[[小行星带|主带小行星]]
| orbit_ref = <ref>[http://ssd.jpl.nasa.gov/sbdb.cgi?sstr=568+Cheruskia 568 Cheruskia (1905 QS)]</ref>
| epoch = 2011年8月27日
| semimajor= 2.884202003948666AU
| perihelion=2.404905428452362AU
| aphelion= 3.36349857944497[[天文单位|AU]]
| eccentricity =0.1661799606407994				
| period = 1789.109567893755[[日|地球日]]<br>4.90[[年|地球年]] 
| inclination=18.3901693816473[[角度|°]]
| asc_node=249.9009096070904°
| arg_peri=174.3058054210382°
| mean_anomaly=161.7101020872772°
| avg_speed=
 | dimensions=86.99千米
 | mass=
 | density=
 | surface_grav=
 | escape_velocity=
 | rotation=13.209小时
 | spectral_type=
 | magnitude=
 | abs_magnitude=9.10
 | albedo=0.0535		
 | single_temperature=
}}
'''小行星568'''（'''568 Cheruskia'''），是由[[德国|德国]][[天文学家|天文学家]][[保罗·格茨|保罗·格茨]]于1905年7月26日在德国[[海德堡|海德堡]][[王座山天文台|王座山天文台]]利用照相法发现的[[小行星带|主带]][[小行星|小行星]]。

小行星568以[[海德堡大学|海德堡大学]]的一个兄弟会Cheruskia命名。

== 参考资料 ==
{{Reflist}}

{{Minor Planet Number|(567)[[小行星567|小行星567]]|(569)[[小行星569|小行星569]]}}

[[Category:小行星带天体|Category:小行星带天体]]
[[Category:1905年发现的小行星|Category:1905年发现的小行星]]